NORAD_CAT_ID,OBJECT_NAME,OBJECT_TYPE,EPOCH,MEAN_MOTION,ECCENTRICITY,INCLINATION,RA_OF_ASC_NODE,ARG_OF_PERICENTER,MEAN_ANOMALY,BSTAR,MEAN_MOTION_DOT,MEAN_MOTION_DDOT,TLE_LINE0,TLE_LINE1,TLE_LINE2,SEMIMAJOR_AXIS,PERIOD,APOGEE,PERIGEE,DECAYED
54802.0,STARLINK-5426,PAYLOAD,2024-08-02 08:44:11,15.08855267,0.0001154,53.2163,91.7221,92.514,267.5984,0.00047381,7.264e-05,0.0,0 STARLINK-5426,1 54802U 22175AW  24215.36402053  .00007264  00000-0  47381-3 0  9998,2 54802  53.2163  91.7221 0001154  92.5140 267.5984 15.08855267 90327,6917.834,95.437,540.497,538.9,0.0
54802.0,STARLINK-5426,PAYLOAD,2024-08-02 19:51:54,15.08825654,0.0001498,53.2169,89.6446,103.8796,256.2363,-0.00029396,-4.961e-05,0.0,0 STARLINK-5426,1 54802U 22175AW  24215.82771302 -.00004961  00000-0 -29396-3 0  9994,2 54802  53.2169  89.6446 0001498 103.8796 256.2363 15.08825654 90392,6917.924,95.438,540.826,538.753,0.0
54802.0,STARLINK-5426,PAYLOAD,2024-08-02 21:27:17,15.08826092,0.0001671,53.2169,89.3471,98.7427,261.3754,-0.00032027,-5.38e-05,0.0,0 STARLINK-5426,1 54802U 22175AW  24215.89395228 -.00005380  00000-0 -32027-3 0  9991,2 54802  53.2169  89.3471 0001671  98.7427 261.3754 15.08826092 92562,6917.923,95.438,540.944,538.632,0.0
54802.0,STARLINK-5426,PAYLOAD,2024-08-03 00:38:03,15.08828993,0.0001613,53.2168,88.7512,93.6684,266.4493,0.00018938,2.726e-05,0.0,0 STARLINK-5426,1 54802U 22175AW  24216.02643262  .00002726  00000-0  18938-3 0  9995,2 54802  53.2168  88.7512 0001613  93.6684 266.4493 15.08828993 90426,6917.914,95.438,540.895,538.663,0.0
54802.0,STARLINK-5426,PAYLOAD,2024-08-03 08:34:59,15.08835712,0.0001604,53.2164,87.2624,89.2189,270.8986,0.0010721,0.00016814,0.0,0 STARLINK-5426,1 54802U 22175AW  24216.35763643  .00016814  00000-0  10721-2 0  9991,2 54802  53.2164  87.2624 0001604  89.2189 270.8986 15.08835712 90479,6917.893,95.438,540.868,538.649,0.0
54802.0,STARLINK-5426,PAYLOAD,2024-08-03 19:42:41,15.08860775,0.0001555,53.216,85.1799,87.5072,272.6098,0.0017285,0.00027344,0.0,0 STARLINK-5426,1 54802U 22175AW  24216.82131438  .00027344  00000-0  17285-2 0  9996,2 54802  53.2160  85.1799 0001555  87.5072 272.6098 15.08860775 90541,6917.817,95.436,540.758,538.606,0.0
54802.0,STARLINK-5426,PAYLOAD,2024-08-03 21:18:04,15.08864874,0.0001612,53.2163,84.8831,86.6778,273.4398,0.0017786,0.00028151,0.0,0 STARLINK-5426,1 54802U 22175AW  24216.88755350  .00028151  00000-0  17786-2 0  9990,2 54802  53.2163  84.8831 0001612  86.6778 273.4398 15.08864874 92711,6917.804,95.436,540.785,538.554,0.0
54802.0,STARLINK-5426,PAYLOAD,2024-08-04 00:28:50,15.08873848,0.0001539,53.2159,84.2875,85.8287,274.2881,0.0019495,0.00030904,0.0,0 STARLINK-5426,1 54802U 22175AW  24217.02003054  .00030904  00000-0  19495-2 0  9992,2 54802  53.2159  84.2875 0001539  85.8287 274.2881 15.08873848 90571,6917.777,95.435,540.707,538.577,0.0
54802.0,STARLINK-5426,PAYLOAD,2024-08-04 21:08:51,15.08887574,0.0001379,53.2158,80.4219,99.5293,260.5855,0.0035608,0.00056914,0.0,0 STARLINK-5426,1 54802U 22175AW  24217.88114832  .00056914  00000-0  35608-2 0  9996,2 54802  53.2158  80.4219 0001379  99.5293 260.5855 15.08887574 90706,6917.735,95.435,540.554,538.646,0.0
54802.0,STARLINK-5426,PAYLOAD,2024-08-04 22:44:14,15.08883915,0.0001431,53.2149,80.1262,98.3702,261.7453,0.0031206,0.00049787,0.0,0 STARLINK-5426,1 54802U 22175AW  24217.94738729  .00049787  00000-0  31206-2 0  9990,2 54802  53.2149  80.1262 0001431  98.3702 261.7453 15.08883915 92874,6917.746,95.435,540.601,538.621,0.0
54802.0,STARLINK-5426,PAYLOAD,2024-08-05 20:59:38,15.0883898,0.0001321,53.2162,75.9593,93.9289,266.1854,0.00099891,0.00015645,0.0,0 STARLINK-5426,1 54802U 22175AW  24218.87475236  .00015645  00000-0  99891-3 0  9995,2 54802  53.2162  75.9593 0001321  93.9289 266.1854 15.08838980 90859,6917.884,95.438,540.662,538.835,0.0
54802.0,STARLINK-5426,PAYLOAD,2024-08-06 00:10:24,15.08837524,0.0001531,53.2166,75.3631,98.4597,261.6569,0.00076966,0.00011982,0.0,0 STARLINK-5426,1 54802U 22175AW  24219.00723288  .00011982  00000-0  76966-3 0  9992,2 54802  53.2166  75.3631 0001531  98.4597 261.6569 15.08837524 90873,6917.888,95.438,540.812,538.694,0.0
54802.0,STARLINK-5426,PAYLOAD,2024-08-06 08:07:20,15.0883529,0.000165,53.2165,73.8748,103.9547,256.1629,0.0002386,3.511e-05,0.0,0 STARLINK-5426,1 54802U 22175AW  24219.33843443  .00003511  00000-0  23860-3 0  9998,2 54802  53.2165  73.8748 0001650 103.9547 256.1629 15.08835290 90923,6917.895,95.438,540.901,538.618,0.0
54802.0,STARLINK-5426,PAYLOAD,2024-08-06 19:15:02,15.08839589,0.0001628,53.2169,71.793,105.9043,254.2128,0.00014442,2.011e-05,0.0,0 STARLINK-5426,1 54802U 22175AW  24219.80211451  .00002011  00000-0  14442-3 0  9998,2 54802  53.2169  71.7930 0001628 105.9043 254.2128 15.08839589 90990,6917.882,95.438,540.873,538.62,0.0
54802.0,STARLINK-5426,PAYLOAD,2024-08-06 20:50:25,15.08840836,0.0001585,53.2171,71.496,106.1681,253.9485,0.0001024,1.342e-05,0.0,0 STARLINK-5426,1 54802U 22175AW  24219.86835402  .00001342  00000-0  10240-3 0  9990,2 54802  53.2171  71.4960 0001585 106.1681 253.9485 15.08840836 93167,6917.878,95.438,540.839,538.646,0.0
54802.0,STARLINK-5426,PAYLOAD,2024-08-07 20:41:12,15.08844565,0.0001362,53.217,67.0392,92.4979,267.6169,0.00019525,2.821e-05,0.0,0 STARLINK-5426,1 54802U 22175AW  24220.86195527  .00002821  00000-0  19525-3 0  9997,2 54802  53.2170  67.0392 0001362  92.4979 267.6169 15.08844565 91157,6917.866,95.437,540.674,538.789,0.0
54802.0,STARLINK-5426,PAYLOAD,2024-08-08 20:32:00,15.08843498,0.0001392,53.2173,62.5819,97.1374,262.9777,0.00020134,2.918e-05,0.0,0 STARLINK-5426,1 54802U 22175AW  24221.85555875  .00002918  00000-0  20134-3 0  9998,2 54802  53.2173  62.5819 0001392  97.1374 262.9777 15.08843498 91302,6917.87,95.437,540.698,538.772,0.0
54802.0,STARLINK-5426,PAYLOAD,2024-08-09 06:04:19,15.08843568,0.0001505,53.217,60.7904,69.7762,290.3392,0.00015577,2.192e-05,0.0,0 STARLINK-5426,1 54802U 22175AW  24222.25299886  .00002192  00000-0  15577-3 0  9999,2 54802  53.2170  60.7904 0001505  69.7762 290.3392 15.08843568 91368,6917.869,95.437,540.776,538.693,0.0
54802.0,STARLINK-5426,PAYLOAD,2024-08-09 20:22:46,15.08854365,0.0001337,53.2165,58.1222,112.0195,248.094,0.00033758,5.091e-05,0.0,0 STARLINK-5426,1 54802U 22175AW  24222.84915264  .00005091  00000-0  33758-3 0  9991,2 54802  53.2165  58.1222 0001337 112.0195 248.0940 15.08854365 91457,6917.836,95.437,540.626,538.777,0.0
54802.0,STARLINK-5426,PAYLOAD,2024-08-09 21:58:09,15.08861058,0.0001163,53.2171,57.8199,98.6696,261.4428,0.00059974,9.275e-05,0.0,0 STARLINK-5426,1 54802U 22175AW  24222.91539067  .00009275  00000-0  59974-3 0  9998,2 54802  53.2171  57.8199 0001163  98.6696 261.4428 15.08861058 93623,6917.816,95.436,540.486,538.876,0.0
54802.0,STARLINK-5426,PAYLOAD,2024-08-10 20:13:33,15.08854804,0.0001177,53.2172,53.6569,73.2533,286.8588,0.00031338,4.705e-05,0.0,0 STARLINK-5426,1 54802U 22175AW  24223.84275304  .00004705  00000-0  31338-3 0  9999,2 54802  53.2172  53.6569 0001177  73.2533 286.8588 15.08854804 91608,6917.835,95.437,540.514,538.886,0.0
54802.0,STARLINK-5426,PAYLOAD,2024-08-11 12:07:25,15.08831748,0.0001009,53.2168,50.6812,101.9903,258.1202,-2.6504e-05,-7.09e-06,0.0,0 STARLINK-5426,1 54802U 22175AW  24224.50516164 -.00000709  00000-0 -26504-4 0  9997,2 54802  53.2168  50.6812 0001009 101.9903 258.1202 15.08831748 91703,6917.906,95.438,540.469,539.073,0.0
54802.0,STARLINK-5426,PAYLOAD,2024-08-11 21:39:44,15.08847172,0.0001332,53.2176,48.9014,84.2123,275.902,0.00082438,0.00012859,0.0,0 STARLINK-5426,1 54802U 22175AW  24224.90260019  .00012859  00000-0  82438-3 0  9990,2 54802  53.2176  48.9014 0001332  84.2123 275.9020 15.08847172 93921,6917.858,95.437,540.645,538.802,0.0
54802.0,STARLINK-5426,PAYLOAD,2024-08-12 11:58:12,15.08842684,0.0001216,53.2166,46.2227,98.0182,262.0948,0.00045998,7.041e-05,0.0,0 STARLINK-5426,1 54802U 22175AW  24225.49876078  .00007041  00000-0  45998-3 0  9990,2 54802  53.2166  46.2227 0001216  98.0182 262.0948 15.08842684 91855,6917.872,95.437,540.578,538.896,0.0
54802.0,STARLINK-5426,PAYLOAD,2024-08-12 18:19:44,15.08871261,9.82e-05,53.2168,45.0322,102.4319,257.6783,0.0012246,0.00019272,0.0,0 STARLINK-5426,1 54802U 22175AW  24225.76371348  .00019272  00000-0  12246-2 0  9998,2 54802  53.2168  45.0322 0000982 102.4319 257.6783 15.08871261 91895,6917.785,95.436,540.329,538.971,0.0
54802.0,STARLINK-5426,PAYLOAD,2024-08-12 21:30:30,15.08884764,0.0001387,53.2165,44.4378,93.9906,266.1245,0.0015471,0.0002445,0.0,0 STARLINK-5426,1 54802U 22175AW  24225.89618974  .00024450  00000-0  15471-2 0  9998,2 54802  53.2165  44.4378 0001387  93.9906 266.1245 15.08884764 94075,6917.744,95.435,540.568,538.649,0.0
54802.0,STARLINK-5426,PAYLOAD,2024-08-13 05:27:28,15.08824192,0.0002609,53.2171,42.9507,81.3177,278.8111,-0.0003938,-6.548e-05,0.0,0 STARLINK-5426,1 54802U 22175AW  24226.22740768 -.00006548  00000-0 -39380-3 0  9999,2 54802  53.2171  42.9507 0002609  81.3177 278.8111 15.08824192 91964,6917.929,95.439,541.599,537.989,0.0
54802.0,STARLINK-5426,PAYLOAD,2024-08-13 18:10:33,15.08817664,0.0003363,53.2117,40.5696,92.7918,267.3459,-0.00023865,-4.083e-05,0.0,0 STARLINK-5426,1 54802U 22175AW  24226.75733772 -.00004083  00000-0 -23865-3 0  9997,2 54802  53.2117  40.5696 0003363  92.7918 267.3459 15.08817664 92048,6917.949,95.439,542.14,537.487,0.0
54802.0,STARLINK-5426,PAYLOAD,2024-08-13 19:45:57,15.08795667,0.0001747,53.215,40.2778,73.1132,287.0051,-0.00078995,-0.00012823,0.0,0 STARLINK-5426,1 54802U 22175AW  24226.82358318 -.00012823  00000-0 -78995-3 0  9999,2 54802  53.2150  40.2778 0001747  73.1132 287.0051 15.08795667 94214,6918.016,95.44,541.089,538.672,0.0
54802.0,STARLINK-5426,PAYLOAD,2024-08-13 22:56:44,15.08795009,0.0001619,53.2149,39.6852,63.7887,296.3271,-0.00056154,-9.203e-05,0.0,0 STARLINK-5426,1 54802U 22175AW  24226.95606733 -.00009203  00000-0 -56154-3 0  9991,2 54802  53.2149  39.6852 0001619  63.7887 296.3271 15.08795009 92076,6918.018,95.44,541.003,538.763,0.0
